CZ-4B R/B               
1 43656U 18081B   23328.49528872  .00000413  00000+0  14100-3 0  9991
2 43656  99.4508 151.9361 0207848  77.2542 285.1780 14.31011909265433
CFOSAT                  
1 43662U 18083A   23328.79043350  .00007299  00000+0  37940-3 0  9992
2 43662  97.3883 343.8961 0001297  97.2351 262.9030 15.16362200280773
2018-083B               
1 43663U 18083B   23328.81158991  .00033492  00000+0  91113-3 0  9990
2 43663  97.3624 354.5558 0004619 277.6788  82.3931 15.37449513281509
2018-083C               
1 43664U 18083C   23328.77743103  .00020438  00000+0  66225-3 0  9993
2 43664  97.3678 350.6943 0006552 287.3212  72.7312 15.32016724281383
2018-083D               
1 43665U 18083D   23328.79542652  .00022021  00000+0  70227-3 0  9999
2 43665  97.3677 351.4924 0007654 287.1436  72.8968 15.32504516281425
CUBEBEL-1 (BSUSAT-1)    
1 43666U 18083E   23328.81740927  .00104267  00000+0  14859-2 0  9999
2 43666  97.3592   2.8622 0004339 243.0325 117.0487 15.55950979282005
2018-083G               
1 43668U 18083G   23328.78873946  .00034269  00000+0  86539-3 0  9994
2 43668  97.3611 353.0239 0004092 272.7724  87.3053 15.39740603281585
CHANGSHAGAOXIN (TY 4-01)
1 43669U 18083H   23328.81261158  .00064341  00000+0  12573-2 0  9995
2 43669  97.3622 356.2222 0003104 258.0853 102.0049 15.47234803281666
TEN-KOH                 
1 43677U 18084G   23328.40349091  .00004332  00000+0  40951-3 0  9999
2 43677  98.0343 111.5845 0014263 343.0639  17.0102 14.94166057275979
DIWATA-2B               
1 43678U 18084H   23328.75590019  .00003088  00000+0  29409-3 0  9998
2 43678  98.0440 116.2753 0009169 358.9660   1.1539 14.94149990276231
STARS-AO                
1 43679U 18084J   23328.41206172  .00007089  00000+0  59242-3 0  9999
2 43679  98.0410 120.2003 0007983 348.5492  11.5547 14.98819891276414
AUTCUBE 2               
1 43681U 18084K   23328.40190036  .00005266  00000+0  46144-3 0  9994
2 43681  98.0398 117.7155 0008340 351.7809   8.3274 14.97097763276266
METOP-C                 
1 43689U 18087A   23328.74775882  .00000259  00000+0  13829-3 0  9991
2 43689  98.7111  25.8011 0001837 330.5345  29.5729 14.21483575261933
ES'HAIL 2               
1 43700U 18090A   23328.38660374  .00000152  00000+0  00000+0 0  9993
2 43700   0.0131 352.4571 0002029 284.4881 311.1242  1.00271752 18295
TIANPING 1B             
1 43714U 18094E   23328.78982077  .00014242  00000+0  42006-3 0  9994
2 43714  97.3837 340.8794 0008129 296.1423  63.8984 15.35078600279146
MOHAMMED VI-B           
1 43717U 18095A   23328.79628919  .00001569  00000+0  22943-3 0  9997
2 43717  97.9600  38.5315 0001354 105.2680 254.8679 14.77069487269949
HYSIS                   
1 43719U 18096A   23328.75033160  .00002562  00000+0  35635-3 0  9990
2 43719  97.8952  31.9403 0000961 300.5640  59.5477 14.78674998269186
GLOBAL-1                
1 43730U 18096M   23328.23619454  .00105614  00000+0  96415-3 0  9997
2 43730  97.3229  57.4562 0006715 310.8920  49.1759 15.67504006278884
COSMOS 2530             
1 43751U 18097A   23328.75197596  .00000022  00000+0  90443-4 0  9999
2 43751  82.5143  82.9053 0018750 275.9187  83.9756 12.42907341226160
COSMOS 2531             
1 43752U 18097B   23328.77938467  .00000028  00000+0  13310-3 0  9995
2 43752  82.5187  83.6033 0016013 293.7907  66.1494 12.42877306226173
COSMOS 2532             
1 43753U 18097C   23328.80654590  .00000017  00000+0  50834-4 0  9993
2 43753  82.5133  82.7977 0017319 296.4164  63.5139 12.42877632226176
MINXSS-2                
1 43758U 18099A   23328.12650118  .00010445  00000+0  75171-3 0  9993
2 43758  97.5856  29.0969 0017694 302.7809  57.1712 15.04275335271761
SIRION PATHFINDER-2     
1 43759U 18099B   23328.68893074  .00005570  00000+0  44991-3 0  9994
2 43759  97.5499  25.7492 0012269 280.5397  79.4444 15.00158364271674
AISTECHSAT 2            
1 43768U 18099L   23328.69803416  .00006497  00000+0  52631-3 0  9995
2 43768  97.5461  23.6220 0006256 307.0805  52.9847 15.00028749271291
FOX-1CLIFF (AO-95)      
1 43770U 18099N   23328.16802505  .00007963  00000+0  60867-3 0  9997
2 43770  97.5808  25.6574 0013879 346.4838  13.6013 15.02123710271605
RANGE-A                 
1 43772U 18099Q   23328.69067748  .00011660  00000+0  83522-3 0  9991
2 43772  97.5558  29.2408 0004292 247.6675 112.4097 15.04538174271779
RANGE-B                 
1 43773U 18099R   23328.12521478  .00005204  00000+0  42251-3 0  9996
2 43773  97.5486  22.9087 0012301 310.3506  49.6642 14.99990386271524
HIBER-2                 
1 43774U 18099S   23328.74390560  .00012474  00000+0  87076-3 0  9992
2 43774  97.5745  29.5377 0009552 295.7830  64.2411 15.05460358271805
MOVE-II                 
1 43780U 18099Y   23328.73831014  .00016522  00000+0  10760-2 0  9995
2 43780  97.5525  29.6261 0007317 331.9126  28.1706 15.07988147271897
VESTA-1                 
1 43781U 18099Z   23328.11025097  .00011263  00000+0  81584-3 0  9994
2 43781  97.5518  25.4629 0006490 322.3307  37.7464 15.04116456271663
SNUSAT-2                
1 43782U 18099AA  23328.16008791  .00007269  00000+0  56296-3 0  9995
2 43782  97.5507  25.8504 0013816 275.6454  84.3196 15.01656742271621
SNUGLITE                
1 43784U 18099AC  23328.10958036  .00008964  00000+0  68068-3 0  9990
2 43784  97.5290  25.3279 0004474 292.4486  67.6266 15.02400589271661
ITASAT                  
1 43786U 18099AE  23328.76129738  .00006718  00000+0  52514-3 0  9997
2 43786  97.5492  26.9408 0017715 324.1107  35.8926 15.01281377271721
KAZSCISAT-1             
1 43787U 18099AF  23328.16384282  .00015643  00000+0  10434-2 0  9990
2 43787  97.5387  26.9891 0006057 307.3450  52.7225 15.07124189271837
EAGLET-I                
1 43790U 18099AJ  23328.66434986  .00005718  00000+0  45670-3 0  9999
2 43790  97.5647  27.2329 0015435 312.4830  47.5089 15.00549756271439
ESEO                    
1 43792U 18099AL  23328.13981431  .00002035  00000+0  17509-3 0  9994
2 43792  97.5503  24.6457 0011712 311.8699  48.1524 14.98418596271338
CSIM-FD                 
1 43793U 18099AM  23328.72940595  .00016568  00000+0  10712-2 0  9990
2 43793  97.5595  31.1420 0013543 301.4356  58.5547 15.08202000271740
ORBWEAVER 1             
1 43795U 18099AP  23328.14338296  .00035735  00000+0  17810-2 0  9990
2 43795  97.5590  34.4720 0002062 229.3543 130.7512 15.17459095272166
THEA                    
1 43796U 18099AQ  23328.16466568  .00008849  00000+0  64786-3 0  9998
2 43796  97.5779  29.2643 0012574 304.1515  55.8518 15.03737948270704
ASTROCAST 0.1           
1 43798U 18099AS  23328.12500842  .00010676  00000+0  73395-3 0  9997
2 43798  97.5674  29.6433 0010338 279.8353  80.1706 15.06066632271816
JY1SAT (JO-97)          
1 43803U 18099AX  23328.14436566  .00008327  00000+0  61872-3 0  9994
2 43803  97.5522  26.7281 0009218 288.6551  71.3673 15.03225287271700
SUOMI-100               
1 43804U 18099AY  23328.11509905  .00009094  00000+0  68197-3 0  9999
2 43804  97.5604  26.4884 0016501 283.6894  76.2494 15.02776392271696
AL-FARABI 2             
1 43805U 18099AZ  23328.17058076  .00011788  00000+0  82564-3 0  9991
2 43805  97.5433  27.7483 0010358 279.3133  80.6923 15.05342600271799
CENTAURI-1              
1 43809U 18099BD  23328.71331929  .00006937  00000+0  54564-3 0  9995
2 43809  97.5576  26.6829 0019050 313.7921  46.1727 15.01012090271432
GLOBAL-2                
1 43812U 18099BG  23328.70659895  .00005308  00000+0  42997-3 0  9991
2 43812  97.5384  25.4924 0010464 308.1576  51.8704 15.00086353271283
BRIO                    
1 43813U 18099BH  23328.76255719  .00015932  00000+0  10487-2 0  9997
2 43813  97.5965  33.9727 0006571 281.6353  78.4137 15.07609286271655
SPACEBEE-5              
1 43817U 18099BM  23328.18911437  .00116594  00000+0  31174-2 0  9995
2 43817  97.5727  42.3245 0003819 244.1901 115.8949 15.37599699272083
SEAHAWK-1               
1 43820U 18099BQ  23328.12677441  .00007659  00000+0  59170-3 0  9995
2 43820  97.5311  25.4510 0013091 308.6510  51.3543 15.01734929271078
SAUDISAT 5A             
1 43831U 18102A   23328.77877140  .00006514  00000+0  36780-3 0  9992
2 43831  97.4383  34.4249 0013359 163.7675 196.3987 15.13388379273505
SAUDISAT 5B             
1 43833U 18102C   23328.76627358  .00006154  00000+0  34233-3 0  9998
2 43833  97.4420  35.9311 0014025 169.0154 191.1387 15.13936487273570
2018-102D               
1 43834U 18102D   23328.75440823  .00011764  00000+0  59871-3 0  9996
2 43834  97.4522  38.5346 0012522 165.5296 194.6298 15.16905248273707
2018-102E               
1 43835U 18102E   23328.79100014  .00021613  00000+0  89749-3 0  9997
2 43835  97.4539  41.9414 0011775 154.3866 205.7956 15.23785930273930
2018-102F               
1 43836U 18102F   23328.77012668  .00023527  00000+0  96313-3 0  9994
2 43836  97.4591  43.2169 0012010 155.4022 204.7790 15.24247043273945
2018-102G               
1 43837U 18102G   23328.78908267  .00023959  00000+0  94317-3 0  9996
2 43837  97.4607  44.2601 0011513 155.7257 204.4526 15.25560856274021
2018-102H               
1 43838U 18102H   23328.81241657  .00035461  00000+0  12358-2 0  9999
2 43838  97.4362  44.2465 0011725 153.9171 206.2662 15.29498844274109
2018-102J               
1 43839U 18102J   23328.81040094  .00023386  00000+0  94281-3 0  9991
2 43839  97.4771  47.1998 0012794 160.1244 200.0495 15.24754394274044
CHOMPTT                 
1 43855U 18104G   23328.23605314  .00061074  00000+0  97443-3 0  9998
2 43855  85.0259  56.3561 0008876  77.4034 282.8216 15.52940589275298
CP11 (ISX)              
1 43856U 18104H   23328.28864864  .00065342  00000+0  11357-2 0  9992
2 43856  85.0230  59.2831 0008436 125.4720 234.7326 15.50529204274942
ISAT                    
1 43879U 18111D   23328.27137512  .00012226  00000+0  85656-3 0  9994
2 43879  97.6326 230.6418 0014025 349.5353  10.5580 15.05289678268392
